ORBCOMM FM20            
1 25416U 98046D   24180.86969884  .00001740  00000+0  64938-3 0  9992
2 25416  44.9959  52.2981 0000340  10.3311 349.7543 14.35395166353462
ORBCOMM FM16            
1 25417U 98046E   24180.93257749  .00002631  00000+0  93713-3 0  9994
2 25417  44.9949  47.3857 0003518 325.7859  34.2761 14.36437293353411
ORBCOMM FM15            
1 25418U 98046F   24179.92497473  .00001827  00000+0  66920-3 0  9998
2 25418  44.9989  56.3280 0003331 325.9344  34.1289 14.36145351353279
ORBCOMM FM14            
1 25419U 98046G   24180.36084381  .00002239  00000+0  80617-3 0  9996
2 25419  44.9981  53.3100 0001989 317.4940  42.5753 14.36340843353299
ORBCOMM FM13            
1 25420U 98046H   24179.94472414  .00001814  00000+0  67245-3 0  9998
2 25420  44.9992  60.4306 0004417 303.8414  56.2012 14.35577261352298
ORBCOMM FM21            
1 25475U 98053A   24180.73327796  .00001911  00000+0  70706-3 0  9991
2 25475  45.0078 141.0991 0002285 302.3558  57.7068 14.35482852346421
ORBCOMM FM22            
1 25476U 98053B   24180.62244870  .00002014  00000+0  73439-3 0  9992
2 25476  45.0075 138.6993 0003265 279.5207  80.5271 14.36049230346406
ORBCOMM FM23            
1 25477U 98053C   24180.62070374  .00002066  00000+0  75983-3 0  9992
2 25477  45.0081 144.0397 0002902 283.3128  76.7396 14.35533149346552
